{
  "type": "FeatureCollection",
  "features": [
    {
      "type": "Feature",
      "properties": {
        "norad_id": 36036,
        "name": "SMOS",
        "group": "resource",
        "lat": 20.774537984869504,
        "lon": 170.95152636013245,
        "alt_km": 758.8655972003344,
        "timestamp": "2025-12-15T04:01:20.099492+00:00",
        "meta_object_name": "SMOS",
        "meta_object_id": "2009-059A",
        "meta_epoch": "2025-12-14T06:14:30.779808",
        "meta_mean_motion": 14.39742688,
        "meta_eccentricity": 0.00011009,
        "meta_inclination": 98.438,
        "meta_ra_of_asc_node": 173.286,
        "meta_arg_of_pericenter": 84.1524,
        "meta_mean_anomaly": 275.979,
        "meta_ephemeris_type": 0,
        "meta_classification_type": "U",
        "meta_norad_cat_id": 36036,
        "meta_element_set_no": 999,
        "meta_rev_at_epoch": 84684,
        "meta_bstar": 0.00017462497,
        "meta_mean_motion_dot": 5.04e-06,
        "meta_mean_motion_ddot": 0,
        "tle_line1": "1 36036U 09059A   25348.26007847  .00000504  00000+0  17462-3 0  9998",
        "tle_line2": "2 36036  98.4380 173.2860 0001100  84.1524 275.9790 14.39742688846846"
      },
      "geometry": {
        "type": "Point",
        "coordinates": [
          170.95152636013245,
          20.774537984869504
        ]
      }
    },
    {
      "type": "Feature",
      "properties": {
        "norad_id": 36110,
        "name": "YAOGAN-7",
        "group": "resource",
        "lat": 2.517562688670762,
        "lon": 51.27128284605165,
        "alt_km": 640.7896851168744,
        "timestamp": "2025-12-15T04:01:20.099503+00:00",
        "meta_object_name": "YAOGAN-7",
        "meta_object_id": "2009-069A",
        "meta_epoch": "2025-12-14T06:05:37.309056",
        "meta_mean_motion": 14.77735287,
        "meta_eccentricity": 0.00233563,
        "meta_inclination": 98.0299,
        "meta_ra_of_asc_node": 230.0055,
        "meta_arg_of_pericenter": 276.1334,
        "meta_mean_anomaly": 83.7216,
        "meta_ephemeris_type": 0,
        "meta_classification_type": "U",
        "meta_norad_cat_id": 36110,
        "meta_element_set_no": 999,
        "meta_rev_at_epoch": 86231,
        "meta_bstar": 0.00013094281,
        "meta_mean_motion_dot": 8.89e-06,
        "meta_mean_motion_ddot": 0,
        "tle_line1": "1 36110U 09069A   25348.25390404  .00000889  00000+0  13094-3 0  9998",
        "tle_line2": "2 36110  98.0299 230.0055 0023356 276.1334  83.7216 14.77735287862318"
      },
      "geometry": {
        "type": "Point",
        "coordinates": [
          51.27128284605165,
          2.517562688670762
        ]
      }
    },
    {
      "type": "Feature",
      "properties": {
        "norad_id": 36605,
        "name": "TANDEM-X",
        "group": "resource",
        "lat": 63.611545461784175,
        "lon": -20.769055322938595,
        "alt_km": 500.900326292488,
        "timestamp": "2025-12-15T04:01:20.099514+00:00",
        "meta_object_name": "TANDEM-X",
        "meta_object_id": "2010-030A",
        "meta_epoch": "2025-12-13T13:47:56.200128",
        "meta_mean_motion": 15.19152153,
        "meta_eccentricity": 0.00019496,
        "meta_inclination": 97.4458,
        "meta_ra_of_asc_node": 352.9445,
        "meta_arg_of_pericenter": 84.6239,
        "meta_mean_anomaly": 275.5218,
        "meta_ephemeris_type": 0,
        "meta_classification_type": "U",
        "meta_norad_cat_id": 36605,
        "meta_element_set_no": 999,
        "meta_rev_at_epoch": 85846,
        "meta_bstar": 0.0001209332,
        "meta_mean_motion_dot": 2.473e-05,
        "meta_mean_motion_ddot": 0,
        "tle_line1": "1 36605U 10030A   25347.57495602  .00002473  00000+0  12093-3 0  9996",
        "tle_line2": "2 36605  97.4458 352.9445 0001949  84.6239 275.5218 15.19152153858460"
      },
      "geometry": {
        "type": "Point",
        "coordinates": [
          -20.769055322938595,
          63.611545461784175
        ]
      }
    },
    {
      "type": "Feature",
      "properties": {
        "norad_id": 36795,
        "name": "CARTOSAT-2B",
        "group": "resource",
        "lat": 65.04164522362645,
        "lon": -124.78541277349393,
        "alt_km": 620.4827912569954,
        "timestamp": "2025-12-15T04:01:20.099524+00:00",
        "meta_object_name": "CARTOSAT-2B",
        "meta_object_id": "2010-035A",
        "meta_epoch": "2025-12-14T08:01:21.868032",
        "meta_mean_motion": 14.78728547,
        "meta_eccentricity": 0.00130453,
        "meta_inclination": 97.7855,
        "meta_ra_of_asc_node": 37.313,
        "meta_arg_of_pericenter": 71.7948,
        "meta_mean_anomaly": 288.4682,
        "meta_ephemeris_type": 0,
        "meta_classification_type": "U",
        "meta_norad_cat_id": 36795,
        "meta_element_set_no": 999,
        "meta_rev_at_epoch": 83253,
        "meta_bstar": 0.00017081564,
        "meta_mean_motion_dot": 1.205e-05,
        "meta_mean_motion_ddot": 0,
        "tle_line1": "1 36795U 10035A   25348.33428088  .00001205  00000+0  17082-3 0  9995",
        "tle_line2": "2 36795  97.7855  37.3130 0013045  71.7948 288.4682 14.78728547832531"
      },
      "geometry": {
        "type": "Point",
        "coordinates": [
          -124.78541277349393,
          65.04164522362645
        ]
      }
    },
    {
      "type": "Feature",
      "properties": {
        "norad_id": 36834,
        "name": "YAOGAN-10",
        "group": "resource",
        "lat": -64.10903348480755,
        "lon": 172.31486730522946,
        "alt_km": 622.964931659285,
        "timestamp": "2025-12-15T04:01:20.099534+00:00",
        "meta_object_name": "YAOGAN-10",
        "meta_object_id": "2010-038A",
        "meta_epoch": "2025-12-14T08:03:11.883744",
        "meta_mean_motion": 14.84615793,
        "meta_eccentricity": 0.00014137,
        "meta_inclination": 97.9148,
        "meta_ra_of_asc_node": 8.1446,
        "meta_arg_of_pericenter": 80.377,
        "meta_mean_anomaly": 40.6155,
        "meta_ephemeris_type": 0,
        "meta_classification_type": "U",
        "meta_norad_cat_id": 36834,
        "meta_element_set_no": 999,
        "meta_rev_at_epoch": 82977,
        "meta_bstar": 0.00020248944,
        "meta_mean_motion_dot": 1.657e-05,
        "meta_mean_motion_ddot": 0,
        "tle_line1": "1 36834U 10038A   25348.33555421  .00001657  00000+0  20249-3 0  9994",
        "tle_line2": "2 36834  97.9148   8.1446 0001413  80.3770  40.6155 14.84615793829773"
      },
      "geometry": {
        "type": "Point",
        "coordinates": [
          172.31486730522946,
          -64.10903348480755
        ]
      }
    },
    {
      "type": "Feature",
      "properties": {
        "norad_id": 37216,
        "name": "COSMO-SKYMED 4",
        "group": "resource",
        "lat": 32.63521219999956,
        "lon": -4.45719260464239,
        "alt_km": 620.2556072540738,
        "timestamp": "2025-12-15T04:01:20.099544+00:00",
        "meta_object_name": "COSMO-SKYMED 4",
        "meta_object_id": "2010-060A",
        "meta_epoch": "2025-12-14T07:55:06.854016",
        "meta_mean_motion": 14.82147242,
        "meta_eccentricity": 0.00013846,
        "meta_inclination": 97.8808,
        "meta_ra_of_asc_node": 169.6291,
        "meta_arg_of_pericenter": 82.1355,
        "meta_mean_anomaly": 278.0016,
        "meta_ephemeris_type": 0,
        "meta_classification_type": "U",
        "meta_norad_cat_id": 37216,
        "meta_element_set_no": 999,
        "meta_rev_at_epoch": 81718,
        "meta_bstar": 0.00012735299,
        "meta_mean_motion_dot": 9.62e-06,
        "meta_mean_motion_ddot": 0,
        "tle_line1": "1 37216U 10060A   25348.32994044  .00000962  00000+0  12735-3 0  9990",
        "tle_line2": "2 37216  97.8808 169.6291 0001384  82.1355 278.0016 14.82147242817189"
      },
      "geometry": {
        "type": "Point",
        "coordinates": [
          -4.45719260464239,
          32.63521219999956
        ]
      }
    },
    {
      "type": "Feature",
      "properties": {
        "norad_id": 37387,
        "name": "RESOURCESAT-2",
        "group": "resource",
        "lat": -55.64370048849286,
        "lon": 65.78690415483862,
        "alt_km": 827.1734848890983,
        "timestamp": "2025-12-15T04:01:20.099555+00:00",
        "meta_object_name": "RESOURCESAT-2",
        "meta_object_id": "2011-015A",
        "meta_epoch": "2025-12-14T08:01:04.341792",
        "meta_mean_motion": 14.21598027,
        "meta_eccentricity": 0.00063621,
        "meta_inclination": 98.7877,
        "meta_ra_of_asc_node": 51.8788,
        "meta_arg_of_pericenter": 38.4855,
        "meta_mean_anomaly": 321.6775,
        "meta_ephemeris_type": 0,
        "meta_classification_type": "U",
        "meta_norad_cat_id": 37387,
        "meta_element_set_no": 999,
        "meta_rev_at_epoch": 75991,
        "meta_bstar": 0.00011477362,
        "meta_mean_motion_dot": 2.07e-06,
        "meta_mean_motion_ddot": 0,
        "tle_line1": "1 37387U 11015A   25348.33407803  .00000207  00000+0  11477-3 0  9997",
        "tle_line2": "2 37387  98.7877  51.8788 0006362  38.4855 321.6775 14.21598027759914"
      },
      "geometry": {
        "type": "Point",
        "coordinates": [
          65.78690415483862,
          -55.64370048849286
        ]
      }
    }
  ]
}